{"fetched_at":"2026-07-22T07:09:55.588Z","source":"https://celestrak.org/NORAD/elements/gp.php?NAME=NUSAT&FORMAT=JSON","constellation":"satellogic","records":[{"OBJECT_NAME":"NUSAT-26 (M SOMERVILLE)","OBJECT_ID":"2022-033AD","EPOCH":"2026-07-21T14:47:44.056032","CLASSIFICATION_TYPE":"U","MEAN_MOTION":15.43412296,"ECCENTRICITY":0.00072409,"INCLINATION":97.2329,"RA_OF_ASC_NODE":281.4567,"ARG_OF_PERICENTER":118.7938,"MEAN_ANOMALY":241.4038,"EPHEMERIS_TYPE":0,"NORAD_CAT_ID":52184,"ELEMENT_SET_NO":999,"REV_AT_EPOCH":11001,"BSTAR":0.00044686795,"MEAN_MOTION_DOT":0.00019925,"MEAN_MOTION_DDOT":0},{"OBJECT_NAME":"NUSAT-33 (ALBANIA-2)","OBJECT_ID":"2023-001AQ","EPOCH":"2026-07-21T14:07:54.531840","CLASSIFICATION_TYPE":"U","MEAN_MOTION":15.2833482,"ECCENTRICITY":0.00045716,"INCLINATION":97.305,"RA_OF_ASC_NODE":262.8366,"ARG_OF_PERICENTER":284.1883,"MEAN_ANOMALY":75.8849,"EPHEMERIS_TYPE":0,"NORAD_CAT_ID":55047,"ELEMENT_SET_NO":999,"REV_AT_EPOCH":19756,"BSTAR":0.00028142999,"MEAN_MOTION_DOT":0.00007696,"MEAN_MOTION_DDOT":0},{"OBJECT_NAME":"NUSAT-35 (WILLIAMINA)","OBJECT_ID":"2023-001AR","EPOCH":"2026-07-21T13:43:09.970752","CLASSIFICATION_TYPE":"U","MEAN_MOTION":15.35929461,"ECCENTRICITY":0.00097205,"INCLINATION":97.1831,"RA_OF_ASC_NODE":254.4668,"ARG_OF_PERICENTER":346.5475,"MEAN_ANOMALY":13.5509,"EPHEMERIS_TYPE":0,"NORAD_CAT_ID":55048,"ELEMENT_SET_NO":999,"REV_AT_EPOCH":19768,"BSTAR":0.00035470836,"MEAN_MOTION_DOT":0.00012351,"MEAN_MOTION_DDOT":0},{"OBJECT_NAME":"NUSAT-39 (TIKVAH ALPER)","OBJECT_ID":"2023-054Z","EPOCH":"2026-07-21T15:21:15.792768","CLASSIFICATION_TYPE":"U","MEAN_MOTION":15.48246597,"ECCENTRICITY":0.0001492,"INCLINATION":97.3076,"RA_OF_ASC_NODE":112.7465,"ARG_OF_PERICENTER":267.3132,"MEAN_ANOMALY":92.7948,"EPHEMERIS_TYPE":0,"NORAD_CAT_ID":56201,"ELEMENT_SET_NO":999,"REV_AT_EPOCH":18378,"BSTAR":0.00049532663,"MEAN_MOTION_DOT":0.00026066,"MEAN_MOTION_DDOT":0},{"OBJECT_NAME":"NUSAT-38 (MARIA AGNESI)","OBJECT_ID":"2023-054AA","EPOCH":"2026-07-21T14:54:39.272832","CLASSIFICATION_TYPE":"U","MEAN_MOTION":15.51475167,"ECCENTRICITY":0.00079837,"INCLINATION":97.3016,"RA_OF_ASC_NODE":113.4892,"ARG_OF_PERICENTER":297.6661,"MEAN_ANOMALY":62.3781,"EPHEMERIS_TYPE":0,"NORAD_CAT_ID":56202,"ELEMENT_SET_NO":999,"REV_AT_EPOCH":18384,"BSTAR":0.00056833022,"MEAN_MOTION_DOT":0.00033594,"MEAN_MOTION_DDOT":0},{"OBJECT_NAME":"NUSAT-37 (JOAN CLARKE)","OBJECT_ID":"2023-054AB","EPOCH":"2026-07-21T13:55:41.293920","CLASSIFICATION_TYPE":"U","MEAN_MOTION":15.60036872,"ECCENTRICITY":0.00084979,"INCLINATION":97.2585,"RA_OF_ASC_NODE":110.3712,"ARG_OF_PERICENTER":126.9839,"MEAN_ANOMALY":233.2198,"EPHEMERIS_TYPE":0,"NORAD_CAT_ID":56203,"ELEMENT_SET_NO":999,"REV_AT_EPOCH":18400,"BSTAR":0.00060946615,"MEAN_MOTION_DOT":0.00049484,"MEAN_MOTION_DDOT":0},{"OBJECT_NAME":"NUSAT-40 (C SHOEMAKER)","OBJECT_ID":"2023-084M","EPOCH":"2026-07-21T14:35:21.205248","CLASSIFICATION_TYPE":"U","MEAN_MOTION":15.83845893,"ECCENTRICITY":0.00034546,"INCLINATION":97.4869,"RA_OF_ASC_NODE":352.055,"ARG_OF_PERICENTER":177.8145,"MEAN_ANOMALY":182.314,"EPHEMERIS_TYPE":0,"NORAD_CAT_ID":56943,"ELEMENT_SET_NO":999,"REV_AT_EPOCH":17424,"BSTAR":0.00071868188,"MEAN_MOTION_DOT":0.00161264,"MEAN_MOTION_DDOT":0},{"OBJECT_NAME":"NUSAT-41 (C PAYNE-G)","OBJECT_ID":"2023-084N","EPOCH":"2026-07-21T14:11:54.200256","CLASSIFICATION_TYPE":"U","MEAN_MOTION":15.30005164,"ECCENTRICITY":0.00075409,"INCLINATION":97.5555,"RA_OF_ASC_NODE":339.8669,"ARG_OF_PERICENTER":185.7407,"MEAN_ANOMALY":174.3748,"EPHEMERIS_TYPE":0,"NORAD_CAT_ID":56944,"ELEMENT_SET_NO":999,"REV_AT_EPOCH":17304,"BSTAR":0.00034017922,"MEAN_MOTION_DOT":0.00009812,"MEAN_MOTION_DDOT":0},{"OBJECT_NAME":"NUSAT-42 (M WONENBURGER)","OBJECT_ID":"2023-084AL","EPOCH":"2026-07-21T14:20:33.327744","CLASSIFICATION_TYPE":"U","MEAN_MOTION":15.46695192,"ECCENTRICITY":0.00068997,"INCLINATION":97.5756,"RA_OF_ASC_NODE":348.2042,"ARG_OF_PERICENTER":126.7943,"MEAN_ANOMALY":233.3941,"EPHEMERIS_TYPE":0,"NORAD_CAT_ID":56966,"ELEMENT_SET_NO":999,"REV_AT_EPOCH":17339,"BSTAR":0.00042936516,"MEAN_MOTION_DOT":0.00021403,"MEAN_MOTION_DDOT":0},{"OBJECT_NAME":"NUSAT-44 (MARIA MITCHELL)","OBJECT_ID":"2024-043AA","EPOCH":"2026-07-21T13:09:11.467296","CLASSIFICATION_TYPE":"U","MEAN_MOTION":15.2993144,"ECCENTRICITY":0.00066981,"INCLINATION":97.5489,"RA_OF_ASC_NODE":343.3388,"ARG_OF_PERICENTER":113.5628,"MEAN_ANOMALY":246.6316,"EPHEMERIS_TYPE":0,"NORAD_CAT_ID":59122,"ELEMENT_SET_NO":999,"REV_AT_EPOCH":13252,"BSTAR":0.00031933308,"MEAN_MOTION_DOT":0.00009183,"MEAN_MOTION_DDOT":0},{"OBJECT_NAME":"NUSAT-50 (NANCY ROMAN)","OBJECT_ID":"2024-149AB","EPOCH":"2026-07-21T12:01:33.658464","CLASSIFICATION_TYPE":"U","MEAN_MOTION":15.30390285,"ECCENTRICITY":0.00048365,"INCLINATION":97.3771,"RA_OF_ASC_NODE":283.529,"ARG_OF_PERICENTER":87.2808,"MEAN_ANOMALY":272.8987,"EPHEMERIS_TYPE":0,"NORAD_CAT_ID":60493,"ELEMENT_SET_NO":999,"REV_AT_EPOCH":10737,"BSTAR":0.00028388936,"MEAN_MOTION_DOT":0.00008271,"MEAN_MOTION_DDOT":0},{"OBJECT_NAME":"NUSAT-48 (HENRIETTA LEAVITT)","OBJECT_ID":"2024-149AG","EPOCH":"2026-07-21T03:55:16.363776","CLASSIFICATION_TYPE":"U","MEAN_MOTION":15.30206211,"ECCENTRICITY":0.00057606,"INCLINATION":97.3891,"RA_OF_ASC_NODE":283.4962,"ARG_OF_PERICENTER":144.1271,"MEAN_ANOMALY":216.0357,"EPHEMERIS_TYPE":0,"NORAD_CAT_ID":60498,"ELEMENT_SET_NO":999,"REV_AT_EPOCH":10733,"BSTAR":0.00022871295,"MEAN_MOTION_DOT":0.0000661,"MEAN_MOTION_DDOT":0},{"OBJECT_NAME":"NUSAT-49 (KLARA DAN VON NEUMANN)","OBJECT_ID":"2024-149AJ","EPOCH":"2026-07-21T11:15:03.157920","CLASSIFICATION_TYPE":"U","MEAN_MOTION":15.2984765,"ECCENTRICITY":0.00032494,"INCLINATION":97.3772,"RA_OF_ASC_NODE":283.5228,"ARG_OF_PERICENTER":145.3637,"MEAN_ANOMALY":214.7816,"EPHEMERIS_TYPE":0,"NORAD_CAT_ID":60500,"ELEMENT_SET_NO":999,"REV_AT_EPOCH":10737,"BSTAR":0.000079184532,"MEAN_MOTION_DOT":0.00002213,"MEAN_MOTION_DDOT":0},{"OBJECT_NAME":"NUSAT-45 (UZMASAT-1)","OBJECT_ID":"2025-009AH","EPOCH":"2026-07-21T04:41:44.180736","CLASSIFICATION_TYPE":"U","MEAN_MOTION":15.29873248,"ECCENTRICITY":0.00022788,"INCLINATION":97.3581,"RA_OF_ASC_NODE":283.0864,"ARG_OF_PERICENTER":161.6428,"MEAN_ANOMALY":198.4895,"EPHEMERIS_TYPE":0,"NORAD_CAT_ID":62640,"ELEMENT_SET_NO":999,"REV_AT_EPOCH":8412,"BSTAR":0.00022449052,"MEAN_MOTION_DOT":0.00006418,"MEAN_MOTION_DDOT":0},{"OBJECT_NAME":"NUSAT-52","OBJECT_ID":"2025-276AC","EPOCH":"2026-07-21T04:25:35.491584","CLASSIFICATION_TYPE":"U","MEAN_MOTION":15.20072809,"ECCENTRICITY":0.00018356,"INCLINATION":97.4189,"RA_OF_ASC_NODE":275.1722,"ARG_OF_PERICENTER":240.5655,"MEAN_ANOMALY":119.5398,"EPHEMERIS_TYPE":0,"NORAD_CAT_ID":66692,"ELEMENT_SET_NO":999,"REV_AT_EPOCH":3558,"BSTAR":0.00016966704,"MEAN_MOTION_DOT":0.00003594,"MEAN_MOTION_DDOT":0},{"OBJECT_NAME":"NUSAT-51 (YVONNE BRILL)","OBJECT_ID":"2025-276CC","EPOCH":"2026-07-21T10:43:18.366240","CLASSIFICATION_TYPE":"U","MEAN_MOTION":15.20611158,"ECCENTRICITY":0.00022521,"INCLINATION":97.4195,"RA_OF_ASC_NODE":275.5785,"ARG_OF_PERICENTER":205.0374,"MEAN_ANOMALY":155.0752,"EPHEMERIS_TYPE":0,"NORAD_CAT_ID":66740,"ELEMENT_SET_NO":999,"REV_AT_EPOCH":3563,"BSTAR":0.00020893693,"MEAN_MOTION_DOT":0.00004512,"MEAN_MOTION_DDOT":0}]}
