{"epoch":1784710044,"count":18256,"objects":[{"id":"52184","name":"NUSAT-26 (M SOMERVILLE)","type":"PAYLOAD","l1":"1 52184U 22033AD  26202.61648213  .00019925  00000-0  44687-3 0  9991","l2":"2 52184  97.2329 281.4567 0007241 118.7938 241.4038 15.43412296110010"},{"id":"55047","name":"NUSAT-33 (ALBANIA-2)","type":"PAYLOAD","l1":"1 55047U 23001AQ  26202.58882560  .00007696  00000-0  28143-3 0  9990","l2":"2 55047  97.3050 262.8366 0004572 284.1883  75.8849 15.28334820197567"},{"id":"55048","name":"NUSAT-35 (WILLIAMINA)","type":"PAYLOAD","l1":"1 55048U 23001AR  26202.57164318  .00012351  00000-0  35471-3 0  9990","l2":"2 55048  97.1831 254.4668 0009720 346.5475  13.5509 15.35929461197689"},{"id":"56201","name":"NUSAT-39 (TIKVAH ALPER)","type":"PAYLOAD","l1":"1 56201U 23054Z   26202.63976612  .00026066  00000-0  49533-3 0  9997","l2":"2 56201  97.3076 112.7465 0001492 267.3132  92.7948 15.48246597183781"},{"id":"56202","name":"NUSAT-38 (MARIA AGNESI)","type":"PAYLOAD","l1":"1 56202U 23054AA  26202.62128788  .00033594  00000-0  56833-3 0  9995","l2":"2 56202  97.3016 113.4892 0007984 297.6661  62.3781 15.51475167183849"},{"id":"56203","name":"NUSAT-37 (JOAN CLARKE)","type":"PAYLOAD","l1":"1 56203U 23054AB  26202.58033905  .00049484  00000-0  60947-3 0  9993","l2":"2 56203  97.2585 110.3712 0008498 126.9839 233.2198 15.60036872184005"},{"id":"56943","name":"NUSAT-40 (C SHOEMAKER)","type":"PAYLOAD","l1":"1 56943U 23084M   26202.60788432  .00161264  00000-0  71868-3 0  9997","l2":"2 56943  97.4869 352.0550 0003455 177.8145 182.3140 15.83845893174243"},{"id":"56944","name":"NUSAT-41 (C PAYNE-G)","type":"PAYLOAD","l1":"1 56944U 23084N   26202.59159954  .00009812  00000-0  34018-3 0  9993","l2":"2 56944  97.5555 339.8669 0007541 185.7407 174.3748 15.30005164173043"},{"id":"56966","name":"NUSAT-42 (M WONENBURGER)","type":"PAYLOAD","l1":"1 56966U 23084AL  26202.59760796  .00021403  00000-0  42937-3 0  9998","l2":"2 56966  97.5756 348.2042 0006900 126.7943 233.3941 15.46695192173399"},{"id":"59122","name":"NUSAT-44 MARIA MITCHELL","type":"PAYLOAD","l1":"1 59122U 24043AA  26202.54804939  .00009183  00000-0  31933-3 0  9999","l2":"2 59122  97.5489 343.3388 0006698 113.5628 246.6316 15.29931440132529"},{"id":"60493","name":"NUSAT-50 (NANCY ROMAN)","type":"PAYLOAD","l1":"1 60493U 24149AB  26202.50108401  .00008271  00000-0  28389-3 0  9994","l2":"2 60493  97.3771 283.5290 0004837  87.2808 272.8987 15.30390285107379"},{"id":"60498","name":"NUSAT-48 (H. LEAVITT)","type":"PAYLOAD","l1":"1 60498U 24149AG  26202.16338384  .00006610  00000-0  22871-3 0  9991","l2":"2 60498  97.3891 283.4962 0005761 144.1271 216.0357 15.30206211107338"},{"id":"60500","name":"NUSAT-49(K.VON NEUMANN)","type":"PAYLOAD","l1":"1 60500U 24149AJ  26202.46878655  .00002213  00000-0  79185-4 0  9994","l2":"2 60500  97.3772 283.5228 0003249 145.3637 214.7816 15.29847650107379"},{"id":"62640","name":"NUSAT-45 (UZMASAT-1)","type":"PAYLOAD","l1":"1 62640U 25009AH  26202.19565024  .00006418  00000-0  22449-3 0  9991","l2":"2 62640  97.3581 283.0864 0002279 161.6428 198.4895 15.29873248 84120"},{"id":"66692","name":"NUSAT-52","type":"PAYLOAD","l1":"1 66692U 25276AC  26202.18443856  .00003594  00000-0  16967-3 0  9995","l2":"2 66692  97.4189 275.1722 0001836 240.5655 119.5398 15.20072809 35581"},{"id":"66740","name":"NUSAT-51 (YVONNE BRILL)","type":"PAYLOAD","l1":"1 66740U 25276CC  26202.44674035  .00004512  00000-0  20894-3 0  9998","l2":"2 66740  97.4195 275.5785 0002252 205.0374 155.0752 15.20611158 35633"}]}